{"type":"FeatureCollection", "features": [
{"type":"Feature","geometry":{"type":"Polygon","coordinates":[[[77.99674424811202,20.80775990852453],[77.99674424811202,20.80817656681631],[77.99674424811202,20.810676516567007],[77.99632766033648,20.81109317485879],[77.99549448478538,20.81109317485879],[77.99507789700982,20.811509833150573],[77.99507789700982,20.81234314973414],[77.99549448478538,20.81275980802592],[77.99591107256093,20.813176466317703],[77.99591107256093,20.81400978290127],[77.99549448478538,20.814426441193053],[77.99466130923427,20.814426441193053],[77.99424472145873,20.814843099484836],[77.99382813368318,20.815259757776616],[77.99341154590762,20.8156764160684],[77.99299495813207,20.816093074360182],[77.99257837035653,20.816509732651966],[77.99257837035653,20.81734304923553],[77.99299495813207,20.817759707527312],[77.99341154590762,20.818176365819095],[77.99299495813207,20.81859302411088],[77.99257837035653,20.819009682402662],[77.99257837035653,20.819842998986225],[77.99216178258098,20.820259657278008],[77.99174519480542,20.82067631556979],[77.99132860702987,20.821092973861575],[77.98882908037658,20.821092973861575],[77.98841249260103,20.821509632153358],[77.98841249260103,20.82234294873692],[77.98799590482547,20.822759607028704],[77.98632955372327,20.822759607028704],[77.98591296594772,20.823176265320487],[77.98549637817217,20.82359292361227],[77.98299685151886,20.82359292361227],[77.98258026374332,20.823176265320487],[77.98216367596777,20.822759607028704],[77.98174708819222,20.82234294873692],[77.98174708819222,20.82067631556979],[77.98133050041668,20.820259657278008],[77.98091391264111,20.819842998986225],[77.98133050041668,20.81942634069444],[77.98174708819222,20.819009682402662],[77.98133050041668,20.81859302411088],[77.98091391264111,20.818176365819095],[77.98091391264111,20.81734304923553],[77.98133050041668,20.81692639094375],[77.98174708819222,20.816509732651966],[77.98174708819222,20.814843099484836],[77.98216367596777,20.814426441193053],[77.98258026374332,20.81400978290127],[77.98258026374332,20.81234314973414],[77.98299685151886,20.811926491442357],[77.98341343929442,20.811509833150573],[77.98383002706997,20.81109317485879],[77.98424661484552,20.810676516567007],[77.98424661484552,20.809843199983444],[77.98466320262106,20.80942654169166],[77.98882908037658,20.80942654169166],[77.98924566815212,20.809009883399877],[77.98966225592767,20.808593225108094],[77.99007884370323,20.80817656681631],[77.99049543147878,20.80775990852453],[77.99632766033648,20.80775990852453],[77.99674424811202,20.80775990852453]]]},"properties":{"cat":1,"value":1,"label":""}}
]}